ORBCOMM FM115 [+]       
1 41186U 15081H   23286.65939459  .00002533  00000+0  55810-3 0  9990
2 41186  46.9985  66.6157 0000744 199.7915 160.2942 14.59991907418191
ORBCOMM FM108 [+]       
1 41187U 15081J   23286.87356230  .00001644  00000+0  40763-3 0  9998
2 41187  47.0036 113.3497 0002043  24.6218 335.4764 14.55991238417587
ORBCOMM FM117 [+]       
1 41188U 15081K   23286.63323262  .00001552  00000+0  38727-3 0  9997
2 41188  46.9997 113.4428 0002611  34.8385 325.2670 14.55960694417514
ORBCOMM FM116 [+]       
1 41189U 15081L   23286.89759336  .00002833  00000+0  67531-3 0  9999
2 41189  47.0009 202.0075 0001354 130.9084 229.1918 14.55988865416360
